{
  "type": "FeatureCollection",
  "features": [
    {
      "type": "Feature",
      "properties": {
        "norad_id": 34492,
        "name": "IRIDIUM 33 DEB",
        "group": "iridium-33-debris",
        "lat": 82.09008105895452,
        "lon": 125.3772034425264,
        "alt_km": 859.9039166464117,
        "timestamp": "2025-12-19T20:43:00.470479+00:00",
        "meta_object_name": "IRIDIUM 33 DEB",
        "meta_object_id": "1997-051GH",
        "meta_epoch": "2025-12-18T09:36:31.167936",
        "meta_mean_motion": 14.25834729,
        "meta_eccentricity": 0.01887299,
        "meta_inclination": 86.4707,
        "meta_ra_of_asc_node": 332.3402,
        "meta_arg_of_pericenter": 219.7976,
        "meta_mean_anomaly": 295.0845,
        "meta_ephemeris_type": 0,
        "meta_classification_type": "U",
        "meta_norad_cat_id": 34492,
        "meta_element_set_no": 999,
        "meta_rev_at_epoch": 85139,
        "meta_bstar": 0.0028886567,
        "meta_mean_motion_dot": 8.305e-05,
        "meta_mean_motion_ddot": 0,
        "tle_line1": "1 34492U 97051GH  25352.40036074  .00008305  00000+0  28887-2 0  9995",
        "tle_line2": "2 34492  86.4707 332.3402 0188729 219.7976 295.0845 14.25834729851393"
      },
      "geometry": {
        "type": "Point",
        "coordinates": [
          125.3772034425264,
          82.09008105895452
        ]
      }
    },
    {
      "type": "Feature",
      "properties": {
        "norad_id": 34497,
        "name": "IRIDIUM 33 DEB",
        "group": "iridium-33-debris",
        "lat": 20.644581326473247,
        "lon": 50.76392998197063,
        "alt_km": 775.5887048298946,
        "timestamp": "2025-12-19T20:43:00.470489+00:00",
        "meta_object_name": "IRIDIUM 33 DEB",
        "meta_object_id": "1997-051GN",
        "meta_epoch": "2025-12-18T04:30:11.149056",
        "meta_mean_motion": 14.27469284,
        "meta_eccentricity": 0.00783512,
        "meta_inclination": 86.2772,
        "meta_ra_of_asc_node": 50.074,
        "meta_arg_of_pericenter": 321.7487,
        "meta_mean_anomaly": 93.0567,
        "meta_ephemeris_type": 0,
        "meta_classification_type": "U",
        "meta_norad_cat_id": 34497,
        "meta_element_set_no": 999,
        "meta_rev_at_epoch": 86961,
        "meta_bstar": 0.00048701444,
        "meta_mean_motion_dot": 1.253e-05,
        "meta_mean_motion_ddot": 0,
        "tle_line1": "1 34497U 97051GN  25352.18762904  .00001253  00000+0  48701-3 0  9996",
        "tle_line2": "2 34497  86.2772  50.0740 0078351 321.7487  93.0567 14.27469284869610"
      },
      "geometry": {
        "type": "Point",
        "coordinates": [
          50.76392998197063,
          20.644581326473247
        ]
      }
    },
    {
      "type": "Feature",
      "properties": {
        "norad_id": 34508,
        "name": "IRIDIUM 33 DEB",
        "group": "iridium-33-debris",
        "lat": 80.39278945031553,
        "lon": -102.39733231654581,
        "alt_km": 726.2282218175314,
        "timestamp": "2025-12-19T20:43:00.470499+00:00",
        "meta_object_name": "IRIDIUM 33 DEB",
        "meta_object_id": "1997-051GZ",
        "meta_epoch": "2025-12-18T19:12:54.851040",
        "meta_mean_motion": 14.38471932,
        "meta_eccentricity": 0.00664842,
        "meta_inclination": 86.3709,
        "meta_ra_of_asc_node": 100.074,
        "meta_arg_of_pericenter": 153.504,
        "meta_mean_anomaly": 206.9584,
        "meta_ephemeris_type": 0,
        "meta_classification_type": "U",
        "meta_norad_cat_id": 34508,
        "meta_element_set_no": 999,
        "meta_rev_at_epoch": 87396,
        "meta_bstar": 0.00089500959,
        "meta_mean_motion_dot": 2.823e-05,
        "meta_mean_motion_ddot": 0,
        "tle_line1": "1 34508U 97051GZ  25352.80063485  .00002823  00000+0  89501-3 0  9993",
        "tle_line2": "2 34508  86.3709 100.0740 0066484 153.5040 206.9584 14.38471932873962"
      },
      "geometry": {
        "type": "Point",
        "coordinates": [
          -102.39733231654581,
          80.39278945031553
        ]
      }
    },
    {
      "type": "Feature",
      "properties": {
        "norad_id": 34521,
        "name": "IRIDIUM 33 DEB",
        "group": "iridium-33-debris",
        "lat": -16.003239850201847,
        "lon": -151.5473462395429,
        "alt_km": 685.44760229431,
        "timestamp": "2025-12-19T20:43:00.470510+00:00",
        "meta_object_name": "IRIDIUM 33 DEB",
        "meta_object_id": "1997-051HN",
        "meta_epoch": "2025-12-19T03:24:49.282848",
        "meta_mean_motion": 14.63417651,
        "meta_eccentricity": 0.0002349,
        "meta_inclination": 86.3791,
        "meta_ra_of_asc_node": 27.7294,
        "meta_arg_of_pericenter": 185.2812,
        "meta_mean_anomaly": 174.8375,
        "meta_ephemeris_type": 0,
        "meta_classification_type": "U",
        "meta_norad_cat_id": 34521,
        "meta_element_set_no": 999,
        "meta_rev_at_epoch": 88566,
        "meta_bstar": 0.00061239026,
        "meta_mean_motion_dot": 3.188e-05,
        "meta_mean_motion_ddot": 0,
        "tle_line1": "1 34521U 97051HN  25353.14223707  .00003188  00000+0  61239-3 0  9994",
        "tle_line2": "2 34521  86.3791  27.7294 0002349 185.2812 174.8375 14.63417651885663"
      },
      "geometry": {
        "type": "Point",
        "coordinates": [
          -151.5473462395429,
          -16.003239850201847
        ]
      }
    },
    {
      "type": "Feature",
      "properties": {
        "norad_id": 34525,
        "name": "IRIDIUM 33 DEB",
        "group": "iridium-33-debris",
        "lat": -30.53132381678107,
        "lon": -134.05236876036474,
        "alt_km": 758.055912499126,
        "timestamp": "2025-12-19T20:43:00.470521+00:00",
        "meta_object_name": "IRIDIUM 33 DEB",
        "meta_object_id": "1997-051HS",
        "meta_epoch": "2025-12-19T03:14:12.830208",
        "meta_mean_motion": 14.42920186,
        "meta_eccentricity": 0.00065078,
        "meta_inclination": 86.3722,
        "meta_ra_of_asc_node": 44.1141,
        "meta_arg_of_pericenter": 80.5154,
        "meta_mean_anomaly": 309.013,
        "meta_ephemeris_type": 0,
        "meta_classification_type": "U",
        "meta_norad_cat_id": 34525,
        "meta_element_set_no": 999,
        "meta_rev_at_epoch": 88180,
        "meta_bstar": 0.00026538201,
        "meta_mean_motion_dot": 9.07e-06,
        "meta_mean_motion_ddot": 0,
        "tle_line1": "1 34525U 97051HS  25353.13487072  .00000907  00000+0  26538-3 0  9993",
        "tle_line2": "2 34525  86.3722  44.1141 0006507  80.5154 309.0130 14.42920186881803"
      },
      "geometry": {
        "type": "Point",
        "coordinates": [
          -134.05236876036474,
          -30.53132381678107
        ]
      }
    },
    {
      "type": "Feature",
      "properties": {
        "norad_id": 34529,
        "name": "IRIDIUM 33 DEB",
        "group": "iridium-33-debris",
        "lat": 46.186665840363894,
        "lon": 36.17573896626585,
        "alt_km": 753.80896387759,
        "timestamp": "2025-12-19T20:43:00.470533+00:00",
        "meta_object_name": "IRIDIUM 33 DEB",
        "meta_object_id": "1997-051HW",
        "meta_epoch": "2025-12-19T02:09:55.125504",
        "meta_mean_motion": 14.40620588,
        "meta_eccentricity": 0.00055554,
        "meta_inclination": 86.3636,
        "meta_ra_of_asc_node": 32.7046,
        "meta_arg_of_pericenter": 158.1797,
        "meta_mean_anomaly": 201.964,
        "meta_ephemeris_type": 0,
        "meta_classification_type": "U",
        "meta_norad_cat_id": 34529,
        "meta_element_set_no": 999,
        "meta_rev_at_epoch": 88233,
        "meta_bstar": 9.0176019e-05,
        "meta_mean_motion_dot": 3.07e-06,
        "meta_mean_motion_ddot": 0,
        "tle_line1": "1 34529U 97051HW  25353.09022136  .00000307  00000+0  90176-4 0  9992",
        "tle_line2": "2 34529  86.3636  32.7046 0005555 158.1797 201.9640 14.40620588882331"
      },
      "geometry": {
        "type": "Point",
        "coordinates": [
          36.17573896626585,
          46.186665840363894
        ]
      }
    },
    {
      "type": "Feature",
      "properties": {
        "norad_id": 34538,
        "name": "IRIDIUM 33 DEB",
        "group": "iridium-33-debris",
        "lat": -63.78651132119855,
        "lon": -5.164994923532072,
        "alt_km": 734.1241988396587,
        "timestamp": "2025-12-19T20:43:00.470544+00:00",
        "meta_object_name": "IRIDIUM 33 DEB",
        "meta_object_id": "1997-051JF",
        "meta_epoch": "2025-12-18T18:39:10.772064",
        "meta_mean_motion": 14.42682193,
        "meta_eccentricity": 0.00322699,
        "meta_inclination": 86.2762,
        "meta_ra_of_asc_node": 2.9117,
        "meta_arg_of_pericenter": 307.2305,
        "meta_mean_anomaly": 112.1518,
        "meta_ephemeris_type": 0,
        "meta_classification_type": "U",
        "meta_norad_cat_id": 34538,
        "meta_element_set_no": 999,
        "meta_rev_at_epoch": 87843,
        "meta_bstar": 0.00069403531,
        "meta_mean_motion_dot": 2.341e-05,
        "meta_mean_motion_ddot": 0,
        "tle_line1": "1 34538U 97051JF  25352.77720801  .00002341  00000+0  69404-3 0  9999",
        "tle_line2": "2 34538  86.2762   2.9117 0032269 307.2305 112.1518 14.42682193878437"
      },
      "geometry": {
        "type": "Point",
        "coordinates": [
          -5.164994923532072,
          -63.78651132119855
        ]
      }
    }
  ]
}